NORAD_CAT_ID,OBJECT_NAME,OBJECT_TYPE,EPOCH,MEAN_MOTION,ECCENTRICITY,INCLINATION,RA_OF_ASC_NODE,ARG_OF_PERICENTER,MEAN_ANOMALY,BSTAR,MEAN_MOTION_DOT,MEAN_MOTION_DDOT,TLE_LINE0,TLE_LINE1,TLE_LINE2,SEMIMAJOR_AXIS,PERIOD,APOGEE,PERIGEE,DECAYED
51139.0,STARLINK-3172,PAYLOAD,2024-03-22 20:38:29,15.08848792,0.0001352,53.2174,277.1047,87.1873,272.9274,0.00019324,2.79e-05,0.0,0 STARLINK-3172,1 51139U 22005AM  24082.86006118  .00002790  00000-0  19324-3 0  9994,2 51139  53.2174 277.1047 0001352  87.1873 272.9274 15.08848792121634,6917.854,95.437,540.654,538.783,0.0
51139.0,STARLINK-3172,PAYLOAD,2024-03-23 12:32:21,15.08836745,0.0001471,53.2172,274.1293,113.1476,246.9671,4.731e-06,-2.13e-06,0.0,0 STARLINK-3172,1 51139U 22005AM  24083.52247312 -.00000213  00000-0  47310-5 0  9998,2 51139  53.2172 274.1293 0001471 113.1476 246.9671 15.08836745121731,6917.89,95.438,540.773,538.738,0.0
51139.0,STARLINK-3172,PAYLOAD,2024-03-23 18:53:54,15.08837645,0.0001478,53.2169,272.9419,100.3264,259.7895,2.2813e-05,7.5e-07,0.0,0 STARLINK-3172,1 51139U 22005AM  24083.78743389  .00000075  00000-0  22813-4 0  9996,2 51139  53.2169 272.9419 0001478 100.3264 259.7895 15.08837645120664,6917.888,95.438,540.775,538.73,0.0
51139.0,STARLINK-3172,PAYLOAD,2024-03-24 18:44:40,15.08847475,0.0001398,53.2166,268.4816,95.7531,264.362,0.00013425,1.85e-05,0.0,0 STARLINK-3172,1 51139U 22005AM  24084.78102780  .00001850  00000-0  13425-3 0  9991,2 51139  53.2166 268.4816 0001398  95.7531 264.3620 15.08847475121927,6917.858,95.437,540.69,538.755,0.0
51139.0,STARLINK-3172,PAYLOAD,2024-03-25 12:13:55,15.0884139,0.0001737,53.2172,265.2074,112.5884,247.5292,0.00023721,3.489e-05,0.0,0 STARLINK-3172,1 51139U 22005AM  24085.50967214  .00003489  00000-0  23721-3 0  9993,2 51139  53.2172 265.2074 0001737 112.5884 247.5292 15.08841390122032,6917.876,95.437,540.943,538.54,0.0
51139.0,STARLINK-3172,PAYLOAD,2024-03-25 18:35:28,15.08857755,0.0001265,53.2164,264.0197,101.7657,258.3477,0.00047247,7.243e-05,0.0,0 STARLINK-3172,1 51139U 22005AM  24085.77462965  .00007243  00000-0  47247-3 0  9996,2 51139  53.2164 264.0197 0001265 101.7657 258.3477 15.08857755120967,6917.826,95.436,540.566,538.816,0.0
51139.0,STARLINK-3172,PAYLOAD,2024-03-26 12:04:43,15.08833495,0.0001506,53.2169,260.7464,92.9738,267.1426,-4.1668e-05,-9.51e-06,0.0,0 STARLINK-3172,1 51139U 22005AM  24086.50327640 -.00000951  00000-0 -41668-4 0  9991,2 51139  53.2169 260.7464 0001506  92.9738 267.1426 15.08833495122184,6917.9,95.438,540.807,538.723,0.0
51139.0,STARLINK-3172,PAYLOAD,2024-03-26 15:15:29,15.08829206,0.0001408,53.2166,260.1499,94.5493,265.566,-0.00014632,-2.615e-05,0.0,0 STARLINK-3172,1 51139U 22005AM  24086.63575836 -.00002615  00000-0 -14632-3 0  9996,2 51139  53.2166 260.1499 0001408  94.5493 265.5660 15.08829206121096,6917.913,95.438,540.752,538.804,0.0
51139.0,STARLINK-3172,PAYLOAD,2024-03-26 18:26:16,15.08826349,0.0001373,53.2175,259.5584,81.1025,279.0122,-7.9284e-05,-1.549e-05,0.0,0 STARLINK-3172,1 51139U 22005AM  24086.76824722 -.00001549  00000-0 -79284-4 0  9991,2 51139  53.2175 259.5584 0001373  81.1025 279.0122 15.08826349122221,6917.922,95.438,540.737,538.837,0.0
51139.0,STARLINK-3172,PAYLOAD,2024-03-27 03:58:34,15.08833754,0.0001383,53.2179,257.7736,77.7174,282.3973,3.1873e-05,2.19e-06,0.0,0 STARLINK-3172,1 51139U 22005AM  24087.16568199  .00000219  00000-0  31873-4 0  9992,2 51139  53.2179 257.7736 0001383  77.7174 282.3973 15.08833754122286,6917.899,95.438,540.721,538.808,0.0
51139.0,STARLINK-3172,PAYLOAD,2024-03-27 10:20:07,15.08835761,0.0001362,53.2177,256.5831,82.4801,277.6345,4.7002e-05,4.6e-06,0.0,0 STARLINK-3172,1 51139U 22005AM  24087.43064175  .00000460  00000-0  47002-4 0  9996,2 51139  53.2177 256.5831 0001362  82.4801 277.6345 15.08835761121216,6917.893,95.438,540.701,538.816,0.0
51139.0,STARLINK-3172,PAYLOAD,2024-03-27 19:52:22,15.08883549,0.0001359,53.217,254.7993,84.0107,276.104,0.00043151,6.594e-05,0.0,0 STARLINK-3172,1 51139U 22005AM  24087.82803409  .00006594  00000-0  43151-3 0  9994,2 51139  53.2170 254.7993 0001359  84.0107 276.1040 15.08883549122383,6917.747,95.435,540.552,538.672,0.0
51139.0,STARLINK-3172,PAYLOAD,2024-03-28 03:49:20,15.08849122,0.0002093,53.2167,253.3117,82.2544,277.8686,-1.7773e-05,-5.71e-06,0.0,0 STARLINK-3172,1 51139U 22005AM  24088.15926571 -.00000571  00000-0 -17773-4 0  9990,2 51139  53.2167 253.3117 0002093  82.2544 277.8686 15.08849122122432,6917.853,95.437,541.165,538.27,0.0
51139.0,STARLINK-3172,PAYLOAD,2024-03-28 10:10:53,15.08831712,0.0002314,53.2169,252.1257,83.0073,277.1182,0.00018704,2.689e-05,0.0,0 STARLINK-3172,1 51139U 22005AM  24088.42423552  .00002689  00000-0  18704-3 0  9995,2 51139  53.2169 252.1257 0002314  83.0073 277.1182 15.08831712122472,6917.906,95.438,541.372,538.17,0.0
51139.0,STARLINK-3172,PAYLOAD,2024-03-28 19:43:14,15.08813336,0.0002247,53.217,250.3398,79.7647,280.3599,-6.9394e-06,-3.99e-06,0.0,0 STARLINK-3172,1 51139U 22005AM  24088.82169579 -.00000399  00000-0 -69394-5 0  9996,2 51139  53.2170 250.3398 0002247  79.7647 280.3599 15.08813336122531,6917.962,95.439,541.381,538.272,0.0
51139.0,STARLINK-3172,PAYLOAD,2024-03-29 19:33:59,15.08859203,8.89e-05,53.2172,245.8779,124.6206,235.487,-0.00026862,-4.562e-05,0.0,0 STARLINK-3172,1 51139U 22005AM  24089.81526777 -.00004562  00000-0 -26862-3 0  9990,2 51139  53.2172 245.8779 0000889 124.6206 235.4870 15.08859203122688,6917.822,95.436,540.302,539.072,0.0
51139.0,STARLINK-3172,PAYLOAD,2024-03-30 03:30:56,15.08846546,0.0002049,53.2172,244.3924,75.1023,285.0196,-0.00034444,-5.767e-05,0.0,0 STARLINK-3172,1 51139U 22005AM  24090.14648169 -.00005767  00000-0 -34444-3 0  9991,2 51139  53.2172 244.3924 0002049  75.1023 285.0196 15.08846546122735,6917.86,95.437,541.143,538.308,0.0
51139.0,STARLINK-3172,PAYLOAD,2024-03-30 19:24:49,15.08810522,0.0001132,53.2186,241.4204,93.573,266.5391,-8.4261e-05,-1.627e-05,0.0,0 STARLINK-3172,1 51139U 22005AM  24090.80890838 -.00001627  00000-0 -84261-4 0  9990,2 51139  53.2186 241.4204 0001132  93.5730 266.5391 15.08810522122837,6917.97,95.439,540.619,539.052,0.0
51139.0,STARLINK-3172,PAYLOAD,2024-03-31 03:21:43,15.08838241,0.0001298,53.2184,239.9332,81.3904,278.7235,0.00011555,1.551e-05,0.0,0 STARLINK-3172,1 51139U 22005AM  24091.14009010  .00001551  00000-0  11555-3 0  9991,2 51139  53.2184 239.9332 0001298  81.3904 278.7235 15.08838241122885,6917.886,95.438,540.649,538.853,0.0
51139.0,STARLINK-3172,PAYLOAD,2024-03-31 14:29:24,15.08846329,0.0001892,53.2154,237.8531,76.9995,283.1208,0.00029318,4.382e-05,0.0,0 STARLINK-3172,1 51139U 22005AM  24091.60375821  .00004382  00000-0  29318-3 0  9999,2 51139  53.2154 237.8531 0001892  76.9995 283.1208 15.08846329121841,6917.861,95.437,541.035,538.417,0.0
51139.0,STARLINK-3172,PAYLOAD,2024-03-31 16:04:47,15.08845965,0.0002119,53.2137,237.5549,80.7073,279.4159,0.00031407,4.715e-05,0.0,0 STARLINK-3172,1 51139U 22005AM  24091.66999784  .00004715  00000-0  31407-3 0  9997,2 51139  53.2137 237.5549 0002119  80.7073 279.4159 15.08845965122963,6917.862,95.437,541.193,538.261,0.0
51139.0,STARLINK-3172,PAYLOAD,2024-04-01 03:12:29,15.08842731,0.0001596,53.2195,235.4739,78.2341,281.883,0.00027124,4.032e-05,0.0,0 STARLINK-3172,1 51139U 22005AM  24092.13367969  .00004032  00000-0  27124-3 0  9997,2 51139  53.2195 235.4739 0001596  78.2341 281.8830 15.08842731123033,6917.872,95.437,540.841,538.633,0.0
51139.0,STARLINK-3172,PAYLOAD,2024-04-01 12:44:49,15.08831963,0.0001799,53.2183,233.6881,98.2988,261.8208,0.00024005,3.534e-05,0.0,0 STARLINK-3172,1 51139U 22005AM  24092.53112875  .00003534  00000-0  24005-3 0  9996,2 51139  53.2183 233.6881 0001799  98.2988 261.8208 15.08831963123090,6917.905,95.438,541.014,538.525,0.0
51139.0,STARLINK-3172,PAYLOAD,2024-04-01 14:20:12,15.08831161,0.0001711,53.2181,233.3907,100.0836,260.0349,0.00022528,3.298e-05,0.0,0 STARLINK-3172,1 51139U 22005AM  24092.59736948  .00003298  00000-0  22528-3 0  9990,2 51139  53.2181 233.3907 0001711 100.0836 260.0349 15.08831161121996,6917.907,95.438,540.956,538.589,0.0
51139.0,STARLINK-3172,PAYLOAD,2024-04-02 12:35:36,15.08850075,0.000135,53.2178,229.2296,92.2988,267.8159,-8.7366e-05,-1.678e-05,0.0,0 STARLINK-3172,1 51139U 22005AM  24093.52472563 -.00001678  00000-0 -87366-4 0  9998,2 51139  53.2178 229.2296 0001350  92.2988 267.8159 15.08850075122132,6917.85,95.437,540.649,538.781,0.0
51139.0,STARLINK-3172,PAYLOAD,2024-04-02 18:57:08,15.08854209,9.7e-05,53.2176,228.0405,76.4734,283.6366,-3.4756e-05,-8.41e-06,0.0,0 STARLINK-3172,1 51139U 22005AM  24093.78967924 -.00000841  00000-0 -34756-4 0  9992,2 51139  53.2176 228.0405 0000970  76.4734 283.6366 15.08854209123285,6917.837,95.437,540.373,539.031,0.0
51139.0,STARLINK-3172,PAYLOAD,2024-04-03 09:15:37,15.08833593,0.0001182,53.2194,225.3672,83.0346,277.078,3.4633e-05,2.63e-06,0.0,0 STARLINK-3172,1 51139U 22005AM  24094.38584865  .00000263  00000-0  34633-4 0  9998,2 51139  53.2194 225.3672 0001182  83.0346 277.0780 15.08833593123370,6917.9,95.438,540.583,538.947,0.0
51139.0,STARLINK-3172,PAYLOAD,2024-04-03 12:26:23,15.08834894,0.0001283,53.2195,224.7698,88.5524,271.5616,1.1236e-05,-1.09e-06,0.0,0 STARLINK-3172,1 51139U 22005AM  24094.51832864 -.00000109  00000-0  11236-4 0  9992,2 51139  53.2195 224.7698 0001283  88.5524 271.5616 15.08834894122283,6917.896,95.438,540.649,538.873,0.0
51139.0,STARLINK-3172,PAYLOAD,2024-04-03 15:37:09,15.08834583,0.0001159,53.2197,224.1753,85.4573,274.6551,7.7619e-05,9.48e-06,0.0,0 STARLINK-3172,1 51139U 22005AM  24094.65080707  .00000948  00000-0  77619-4 0  9995,2 51139  53.2197 224.1753 0001159  85.4573 274.6551 15.08834583122303,6917.897,95.438,540.564,538.96,0.0
51139.0,STARLINK-3172,PAYLOAD,2024-04-04 12:17:10,15.08838306,0.000115,53.2181,220.3103,86.1507,273.9617,-2.4441e-05,-6.77e-06,0.0,0 STARLINK-3172,1 51139U 22005AM  24095.51192896 -.00000677  00000-0 -24441-4 0  9990,2 51139  53.2181 220.3103 0001150  86.1507 273.9617 15.08838306123548,6917.886,95.438,540.546,538.955,0.0
